[{"OBJECT_NAME":"STARLINK-30514","OBJECT_ID":"2023-156A","EPOCH":"2025-09-22T22:15:05.433408","MEAN_MOTION":15.30201275,"ECCENTRICITY":0.00011597,"INCLINATION":53.1581,"RA_OF_ASC_NODE":137.4135,"ARG_OF_PERICENTER":82.2617,"MEAN_ANOMALY":277.8516,"EPHEMERIS_TYPE":0,"CLASSIFICATION_TYPE":"U","NORAD_CAT_ID":58028,"ELEMENT_SET_NO":999,"REV_AT_EPOCH":11063,"BSTAR":0.00034769532,"MEAN_MOTION_DOT":9.953e-5,"MEAN_MOTION_DDOT":0},{"OBJECT_NAME":"STARLINK-30518","OBJECT_ID":"2023-156B","EPOCH":"2025-09-22T22:28:45.845472","MEAN_MOTION":15.30198999,"ECCENTRICITY":0.0001009,"INCLINATION":53.1597,"RA_OF_ASC_NODE":137.479,"ARG_OF_PERICENTER":79.9013,"MEAN_ANOMALY":280.2102,"EPHEMERIS_TYPE":0,"CLASSIFICATION_TYPE":"U","NORAD_CAT_ID":58029,"ELEMENT_SET_NO":999,"REV_AT_EPOCH":11063,"BSTAR":4.0288795e-5,"MEAN_MOTION_DOT":8.34e-6,"MEAN_MOTION_DDOT":0},{"OBJECT_NAME":"STARLINK-30549","OBJECT_ID":"2023-156C","EPOCH":"2025-09-22T19:58:36.657408","MEAN_MOTION":15.30196737,"ECCENTRICITY":0.00012845,"INCLINATION":53.1607,"RA_OF_ASC_NODE":138.0632,"ARG_OF_PERICENTER":98.1715,"MEAN_ANOMALY":261.9432,"EPHEMERIS_TYPE":0,"CLASSIFICATION_TYPE":"U","NORAD_CAT_ID":58030,"ELEMENT_SET_NO":999,"REV_AT_EPOCH":11056,"BSTAR":4.335221e-5,"MEAN_MOTION_DOT":9.25e-6,"MEAN_MOTION_DDOT":0},{"OBJECT_NAME":"STARLINK-30556","OBJECT_ID":"2023-156D","EPOCH":"2025-09-22T20:24:17.146944","MEAN_MOTION":15.30197855,"ECCENTRICITY":9.842e-5,"INCLINATION":53.1586,"RA_OF_ASC_NODE":147.9929,"ARG_OF_PERICENTER":91.5912,"MEAN_ANOMALY":268.5202,"EPHEMERIS_TYPE":0,"CLASSIFICATION_TYPE":"U","NORAD_CAT_ID":58031,"ELEMENT_SET_NO":999,"REV_AT_EPOCH":11046,"BSTAR":5.1224645e-5,"MEAN_MOTION_DOT":1.158e-5,"MEAN_MOTION_DDOT":0},{"OBJECT_NAME":"STARLINK-30561","OBJECT_ID":"2023-156E","EPOCH":"2025-09-22T21:41:47.022144","MEAN_MOTION":15.30188163,"ECCENTRICITY":0.00010441,"INCLINATION":53.1597,"RA_OF_ASC_NODE":137.8002,"ARG_OF_PERICENTER":98.8299,"MEAN_ANOMALY":261.282,"EPHEMERIS_TYPE":0,"CLASSIFICATION_TYPE":"U","NORAD_CAT_ID":58032,"ELEMENT_SET_NO":999,"REV_AT_EPOCH":11062,"BSTAR":1.6276022e-5,"MEAN_MOTION_DOT":1.23e-6,"MEAN_MOTION_DDOT":0},{"OBJECT_NAME":"STARLINK-30562","OBJECT_ID":"2023-156F","EPOCH":"2025-09-22T06:53:50.210016","MEAN_MOTION":15.30194247,"ECCENTRICITY":0.00012376,"INCLINATION":53.159,"RA_OF_ASC_NODE":230.1078,"ARG_OF_PERICENTER":102.2309,"MEAN_ANOMALY":257.883,"EPHEMERIS_TYPE":0,"CLASSIFICATION_TYPE":"U","NORAD_CAT_ID":58033,"ELEMENT_SET_NO":999,"REV_AT_EPOCH":10925,"BSTAR":7.1446875e-5,"MEAN_MOTION_DOT":1.757e-5,"MEAN_MOTION_DDOT":0},{"OBJECT_NAME":"STARLINK-30565","OBJECT_ID":"2023-156G","EPOCH":"2025-09-22T21:44:49.212096","MEAN_MOTION":15.30198213,"ECCENTRICITY":0.00013283,"INCLINATION":53.1609,"RA_OF_ASC_NODE":137.8203,"ARG_OF_PERICENTER":95.7485,"MEAN_ANOMALY":264.3667,"EPHEMERIS_TYPE":0,"CLASSIFICATION_TYPE":"U","NORAD_CAT_ID":58034,"ELEMENT_SET_NO":999,"REV_AT_EPOCH":11062,"BSTAR":4.4031695e-5,"MEAN_MOTION_DOT":9.45e-6,"MEAN_MOTION_DDOT":0},{"OBJECT_NAME":"STARLINK-30438","OBJECT_ID":"2023-156H","EPOCH":"2025-09-21T22:36:41.763456","MEAN_MOTION":15.30193629,"ECCENTRICITY":0.00010605,"INCLINATION":53.1605,"RA_OF_ASC_NODE":141.9305,"ARG_OF_PERICENTER":88.7617,"MEAN_ANOMALY":271.3505,"EPHEMERIS_TYPE":0,"CLASSIFICATION_TYPE":"U","NORAD_CAT_ID":58035,"ELEMENT_SET_NO":999,"REV_AT_EPOCH":11043,"BSTAR":7.3733245e-5,"MEAN_MOTION_DOT":1.825e-5,"MEAN_MOTION_DDOT":0},{"OBJECT_NAME":"STARLINK-30437","OBJECT_ID":"2023-156J","EPOCH":"2025-09-22T22:19:38.790048","MEAN_MOTION":15.3019703,"ECCENTRICITY":0.00011171,"INCLINATION":53.1594,"RA_OF_ASC_NODE":137.423,"ARG_OF_PERICENTER":78.5941,"MEAN_ANOMALY":281.5186,"EPHEMERIS_TYPE":0,"CLASSIFICATION_TYPE":"U","NORAD_CAT_ID":58036,"ELEMENT_SET_NO":999,"REV_AT_EPOCH":11058,"BSTAR":3.6218403e-5,"MEAN_MOTION_DOT":7.14e-6,"MEAN_MOTION_DDOT":0},{"OBJECT_NAME":"STARLINK-30533","OBJECT_ID":"2023-156K","EPOCH":"2025-09-22T07:36:22.908384","MEAN_MOTION":15.30197179,"ECCENTRICITY":0.00014146,"INCLINATION":53.1606,"RA_OF_ASC_NODE":230.28,"ARG_OF_PERICENTER":85.8876,"MEAN_ANOMALY":274.2287,"EPHEMERIS_TYPE":0,"CLASSIFICATION_TYPE":"U","NORAD_CAT_ID":58037,"ELEMENT_SET_NO":999,"REV_AT_EPOCH":10925,"BSTAR":3.806551e-5,"MEAN_MOTION_DOT":7.68e-6,"MEAN_MOTION_DDOT":0},{"OBJECT_NAME":"STARLINK-30560","OBJECT_ID":"2023-156L","EPOCH":"2025-09-22T19:34:55.887168","MEAN_MOTION":15.30194709,"ECCENTRICITY":0.00010734,"INCLINATION":53.1588,"RA_OF_ASC_NODE":135.2893,"ARG_OF_PERICENTER":89.3742,"MEAN_ANOMALY":270.7382,"EPHEMERIS_TYPE":0,"CLASSIFICATION_TYPE":"U","NORAD_CAT_ID":58038,"ELEMENT_SET_NO":999,"REV_AT_EPOCH":11060,"BSTAR":2.7326088e-5,"MEAN_MOTION_DOT":4.5e-6,"MEAN_MOTION_DDOT":0},{"OBJECT_NAME":"STARLINK-30559","OBJECT_ID":"2023-156M","EPOCH":"2025-09-23T04:49:52.595616","MEAN_MOTION":15.17246411,"ECCENTRICITY":0.00018284,"INCLINATION":53.1599,"RA_OF_ASC_NODE":232.1892,"ARG_OF_PERICENTER":85.2079,"MEAN_ANOMALY":274.9124,"EPHEMERIS_TYPE":0,"CLASSIFICATION_TYPE":"U","NORAD_CAT_ID":58039,"ELEMENT_SET_NO":999,"REV_AT_EPOCH":10930,"BSTAR":0.0010515565,"MEAN_MOTION_DOT":0.00020927,"MEAN_MOTION_DDOT":0},{"OBJECT_NAME":"STARLINK-30555","OBJECT_ID":"2023-156N","EPOCH":"2025-09-22T15:16:00.770592","MEAN_MOTION":15.30198764,"ECCENTRICITY":0.00015437,"INCLINATION":53.1611,"RA_OF_ASC_NODE":228.7341,"ARG_OF_PERICENTER":89.3264,"MEAN_ANOMALY":270.7913,"EPHEMERIS_TYPE":0,"CLASSIFICATION_TYPE":"U","NORAD_CAT_ID":58040,"ELEMENT_SET_NO":999,"REV_AT_EPOCH":10930,"BSTAR":2.6199448e-5,"MEAN_MOTION_DOT":4.17e-6,"MEAN_MOTION_DDOT":0},{"OBJECT_NAME":"STARLINK-30542","OBJECT_ID":"2023-156P","EPOCH":"2025-09-22T20:27:24.008544","MEAN_MOTION":15.30192974,"ECCENTRICITY":0.00012631,"INCLINATION":53.1611,"RA_OF_ASC_NODE":137.8245,"ARG_OF_PERICENTER":81.1194,"MEAN_ANOMALY":278.995,"EPHEMERIS_TYPE":0,"CLASSIFICATION_TYPE":"U","NORAD_CAT_ID":58041,"ELEMENT_SET_NO":999,"REV_AT_EPOCH":11061,"BSTAR":3.6543514e-5,"MEAN_MOTION_DOT":7.23e-6,"MEAN_MOTION_DDOT":0},{"OBJECT_NAME":"STARLINK-30563","OBJECT_ID":"2023-156Q","EPOCH":"2025-09-22T20:25:02.739360","MEAN_MOTION":15.30195927,"ECCENTRICITY":0.00010593,"INCLINATION":53.1583,"RA_OF_ASC_NODE":135.3553,"ARG_OF_PERICENTER":70.591,"MEAN_ANOMALY":289.5205,"EPHEMERIS_TYPE":0,"CLASSIFICATION_TYPE":"U","NORAD_CAT_ID":58042,"ELEMENT_SET_NO":999,"REV_AT_EPOCH":11065,"BSTAR":8.8296625e-5,"MEAN_MOTION_DOT":2.257e-5,"MEAN_MOTION_DDOT":0},{"OBJECT_NAME":"STARLINK-30564","OBJECT_ID":"2023-156R","EPOCH":"2025-09-22T21:46:19.983072","MEAN_MOTION":15.30168332,"ECCENTRICITY":0.00013397,"INCLINATION":53.1594,"RA_OF_ASC_NODE":137.8247,"ARG_OF_PERICENTER":77.5377,"MEAN_ANOMALY":282.5773,"EPHEMERIS_TYPE":0,"CLASSIFICATION_TYPE":"U","NORAD_CAT_ID":58043,"ELEMENT_SET_NO":999,"REV_AT_EPOCH":11062,"BSTAR":-0.00247797,"MEAN_MOTION_DOT":-0.00072966,"MEAN_MOTION_DDOT":0}]
