STARLINK-30514          
1 58028U 23156A   25265.92714622  .00009953  00000+0  34770-3 0  9992
2 58028  53.1581 137.4135 0001159  82.2617 277.8516 15.30201275110637
STARLINK-30518          
1 58029U 23156B   25265.93664173  .00000834  00000+0  40289-4 0  9991
2 58029  53.1597 137.4790 0001009  79.9013 280.2102 15.30198999110636
STARLINK-30549          
1 58030U 23156C   25265.83236872  .00000925  00000+0  43352-4 0  9998
2 58030  53.1607 138.0632 0001284  98.1715 261.9432 15.30196737110561
STARLINK-30556          
1 58031U 23156D   25265.85019846  .00001158  00000+0  51225-4 0  9998
2 58031  53.1586 147.9929 0000984  91.5912 268.5202 15.30197855110467
STARLINK-30561          
1 58032U 23156E   25265.90401646  .00000123  00000+0  16276-4 0  9996
2 58032  53.1597 137.8002 0001044  98.8299 261.2820 15.30188163110622
STARLINK-30562          
1 58033U 23156F   25265.28738669  .00001757  00000+0  71447-4 0  9991
2 58033  53.1590 230.1078 0001237 102.2309 257.8830 15.30194247109251
STARLINK-30565          
1 58034U 23156G   25265.90612514  .00000945  00000+0  44032-4 0  9999
2 58034  53.1609 137.8203 0001328  95.7485 264.3667 15.30198213110629
STARLINK-30438          
1 58035U 23156H   25264.94215004  .00001825  00000+0  73733-4 0  9994
2 58035  53.1605 141.9305 0001060  88.7617 271.3505 15.30193629110431
STARLINK-30437          
1 58036U 23156J   25265.93031007  .00000714  00000+0  36218-4 0  9997
2 58036  53.1594 137.4230 0001117  78.5941 281.5186 15.30197030110580
STARLINK-30533          
1 58037U 23156K   25265.31693181  .00000768  00000+0  38066-4 0  9999
2 58037  53.1606 230.2800 0001414  85.8876 274.2287 15.30197179109255
STARLINK-30560          
1 58038U 23156L   25265.81592462  .00000450  00000+0  27326-4 0  9990
2 58038  53.1588 135.2893 0001073  89.3742 270.7382 15.30194709110607
STARLINK-30559          
1 58039U 23156M   25266.20130319  .00020927  00000+0  10516-2 0  9996
2 58039  53.1599 232.1892 0001828  85.2079 274.9124 15.17246411109300
STARLINK-30555          
1 58040U 23156N   25265.63612003  .00000417  00000+0  26199-4 0  9997
2 58040  53.1611 228.7341 0001543  89.3264 270.7913 15.30198764109304
STARLINK-30542          
1 58041U 23156P   25265.85236121  .00000723  00000+0  36544-4 0  9990
2 58041  53.1611 137.8245 0001263  81.1194 278.9950 15.30192974110613
STARLINK-30563          
1 58042U 23156Q   25265.85072615  .00002257  00000+0  88297-4 0  9993
2 58042  53.1583 135.3553 0001059  70.5910 289.5205 15.30195927110654
STARLINK-30564          
1 58043U 23156R   25265.90717573 -.00072966  00000+0 -24780-2 0  9990
2 58043  53.1594 137.8247 0001339  77.5377 282.5773 15.30168332110629
